NORAD_CAT_ID,OBJECT_NAME,OBJECT_TYPE,EPOCH,MEAN_MOTION,ECCENTRICITY,INCLINATION,RA_OF_ASC_NODE,ARG_OF_PERICENTER,MEAN_ANOMALY,BSTAR,MEAN_MOTION_DOT,MEAN_MOTION_DDOT,TLE_LINE0,TLE_LINE1,TLE_LINE2,SEMIMAJOR_AXIS,PERIOD,APOGEE,PERIGEE,DECAYED
52354.0,STARLINK-3876,PAYLOAD,2022-12-04 11:29:44,15.0883798,0.0003396,53.2192,146.684,47.7718,312.3561,-1.1761e-06,-3.08e-06,0.0,0 STARLINK-3876,1 52354U 22045Z   22338.47898943 -.00000308  00000-0 -11761-5 0  9996,2 52354  53.2192 146.6840 0003396  47.7718 312.3561 15.08837980 35959,6917.887,95.438,542.101,537.4019999999998,0.0
52354.0,STARLINK-3876,PAYLOAD,2022-12-04 17:51:16,15.08844644,0.0003434,53.2189,145.495,48.4782,311.6504,4.7353e-05,4.65e-06,0.0,0 STARLINK-3876,1 52354U 22045Z   22338.74394331  .00000465  00000-0  47353-4 0  9995,2 52354  53.2189 145.4950 0003434  48.4782 311.6504 15.08844644 35994,6917.866,95.437,542.107,537.356,0.0
52354.0,STARLINK-3876,PAYLOAD,2022-12-04 22:37:25,15.08853341,0.0003447,53.2185,144.6036,46.57100000000001,313.5568,0.00020492,2.975e-05,0.0,0 STARLINK-3876,1 52354U 22045Z   22338.94265149  .00002975  00000-0  20492-3 0  9993,2 52354  53.2185 144.6036 0003447  46.5710 313.5568 15.08853341 36020,6917.84,95.437,542.089,537.32,0.0
52354.0,STARLINK-3876,PAYLOAD,2022-12-05 11:20:31,15.08842909,0.0003403,53.2187,142.2251,48.0008,312.1273,5.5883e-05,6.01e-06,0.0,0 STARLINK-3876,1 52354U 22045Z   22339.47258156  .00000601  00000-0  55883-4 0  9999,2 52354  53.2187 142.2251 0003403  48.0008 312.1273 15.08842909 36109,6917.871,95.437,542.091,537.382,0.0
52354.0,STARLINK-3876,PAYLOAD,2022-12-05 17:42:03,15.08840742,0.0003388,53.2192,141.0359,47.0525,313.0751,3.0311e-05,1.94e-06,0.0,0 STARLINK-3876,1 52354U 22045Z   22339.73754340  .00000194  00000-0  30311-4 0  9990,2 52354  53.2192 141.0359 0003388  47.0525 313.0751 15.08840742 36144,6917.878000000002,95.438,542.087,537.399,0.0
52354.0,STARLINK-3876,PAYLOAD,2022-12-06 09:35:54,15.088416,0.0003351,53.2193,138.0622,48.4411,311.6868,2.307e-05,7.8e-07,0.0,0 STARLINK-3876,1 52354U 22045Z   22340.39994153  .00000078  00000-0  23070-4 0  9997,2 52354  53.2193 138.0622 0003351  48.4411 311.6868 15.08841600 36241,6917.875,95.437,542.059,537.422,0.0
52354.0,STARLINK-3876,PAYLOAD,2022-12-06 17:32:50,15.08839959,0.000345,53.2197,136.5755,50.1624,309.9672,-3.6038e-05,-8.62e-06,0.0,0 STARLINK-3876,1 52354U 22045Z   22340.73114526 -.00000862  00000-0 -36038-4 0  9994,2 52354  53.2197 136.5755 0003450  50.1624 309.9672 15.08839959 36293,6917.880999999999,95.438,542.132,537.359,0.0
52354.0,STARLINK-3876,PAYLOAD,2022-12-07 20:34:25,15.08826878,0.0003289,53.2192,131.5195,47.5982,312.5288,-9.6317e-05,-1.821e-05,0.0,0 STARLINK-3876,1 52354U 22045Z   22341.85723643 -.00001821  00000-0 -96317-4 0  9996,2 52354  53.2192 131.5195 0003289  47.5982 312.5288 15.08826878 36466,6917.92,95.438,542.061,537.51,0.0
52354.0,STARLINK-3876,PAYLOAD,2022-12-08 02:55:57,15.0883027,0.0003304,53.2192,130.3313,48.4855,311.642,-3.288e-05,-8.12e-06,0.0,0 STARLINK-3876,1 52354U 22045Z   22342.12219380 -.00000812  00000-0 -32880-4 0  9999,2 52354  53.2192 130.3313 0003304  48.4855 311.6420 15.08830270 36506,6917.91,95.438,542.061,537.489,0.0
52354.0,STARLINK-3876,PAYLOAD,2022-12-09 02:46:43,15.08843119,0.0003143,53.2189,125.8708,47.146,312.9796,0.00011863,1.6e-05,0.0,0 STARLINK-3876,1 52354U 22045Z   22343.11578084  .00001600  00000-0  11863-3 0  9999,2 52354  53.2189 125.8708 0003143  47.1460 312.9796 15.08843119 36650,6917.871,95.437,541.91,537.562,0.0
52354.0,STARLINK-3876,PAYLOAD,2022-12-09 18:40:36,15.08822832,0.0002679,53.2198,122.897,45.0354,315.0855,1.3243e-05,-7.8e-07,0.0,0 STARLINK-3876,1 52354U 22045Z   22343.77819843 -.00000078  00000-0  13243-4 0  9996,2 52354  53.2198 122.8970 0002679  45.0354 315.0855 15.08822832 36750,6917.933000000001,95.439,541.651,537.945,0.0
52354.0,STARLINK-3876,PAYLOAD,2022-12-10 13:45:13,15.088290300000002,0.0002076,53.2187,119.3297,25.931,334.1786,9.3201e-05,1.195e-05,0.0,0 STARLINK-3876,1 52354U 22045Z   22344.57307417  .00001195  00000-0  93201-4 0  9996,2 52354  53.2187 119.3297 0002076  25.9310 334.1786 15.08829030 36876,6917.9140000000025,95.438,541.215,538.3430000000002,0.0
52354.0,STARLINK-3876,PAYLOAD,2022-12-10 16:55:59,15.08842824,0.0003295,53.219,118.7354,47.3994,312.7276,-1.577e-05,-5.400000000000002e-06,0.0,0 STARLINK-3876,1 52354U 22045Z   22344.70555463 -.00000540  00000-0 -15770-4 0  9997,2 52354  53.2190 118.7354 0003295  47.3994 312.7276 15.08842824 36891,6917.871999999999,95.437,542.016,537.457,0.0
52354.0,STARLINK-3876,PAYLOAD,2022-12-11 12:00:37,15.08813073,0.0002164,53.2186,115.1667,32.6842,327.4284,0.00041184,6.268e-05,0.0,0 STARLINK-3876,1 52354U 22045Z   22345.50043300  .00006268  00000-0  41184-3 0  9996,2 52354  53.2186 115.1667 0002164  32.6842 327.4284 15.08813073 37018,6917.9630000000025,95.439,541.325,538.331,0.0
52354.0,STARLINK-3876,PAYLOAD,2022-12-11 13:35:59,15.08873664,0.0003404,53.2187,114.869,49.142,310.9866,-0.00036658,-6.124e-05,0.0,0 STARLINK-3876,1 52354U 22045Z   22345.56666267 -.00006124  00000-0 -36658-3 0  9998,2 52354  53.2187 114.8690 0003404  49.1420 310.9866 15.08873664 37020,6917.776999999999,95.435,541.997,537.288,0.0
52354.0,STARLINK-3876,PAYLOAD,2022-12-11 18:22:09,15.08839665,0.0002994,53.219,113.9772,48.145,311.9798,0.00014199,1.972e-05,0.0,0 STARLINK-3876,1 52354U 22045Z   22345.76538788  .00001972  00000-0  14199-3 0  9996,2 52354  53.2190 113.9772 0002994  48.1450 311.9798 15.08839665 37051,6917.880999999999,95.438,541.818,537.675,0.0
52354.0,STARLINK-3876,PAYLOAD,2022-12-12 11:51:24,15.08846834,0.0003238,53.2211,110.7094,57.0208,303.1095,1.9973e-06,-2.57e-06,0.0,0 STARLINK-3876,1 52354U 22045Z   22346.49402885 -.00000257  00000-0  19973-5 0  9998,2 52354  53.2211 110.7094 0003238  57.0208 303.1095 15.08846834 37160,6917.86,95.437,541.965,537.484,0.0
52354.0,STARLINK-3876,PAYLOAD,2022-12-12 18:12:56,15.08845843,0.0003123,53.2199,109.5177,41.3298,318.793,2.7537e-05,1.5e-06,0.0,0 STARLINK-3876,1 52354U 22045Z   22346.75898789  .00000150  00000-0  27537-4 0  9994,2 52354  53.2199 109.5177 0003123  41.3298 318.7930 15.08845843 37205,6917.863,95.437,541.888,537.567,0.0
52354.0,STARLINK-3876,PAYLOAD,2022-12-12 19:48:20,15.08839718,0.0003315,53.2174,109.2208,43.0863,317.0388,4.688e-06,-2.14e-06,0.0,0 STARLINK-3876,1 52354U 22045Z   22346.82523255 -.00000214  00000-0  46880-5 0  9990,2 52354  53.2174 109.2208 0003315  43.0863 317.0388 15.08839718 37214,6917.880999999999,95.438,542.04,537.453,0.0
52354.0,STARLINK-3876,PAYLOAD,2022-12-13 08:31:25,15.08837259,0.0003352,53.2168,106.8427,44.2047,315.9213,-3.4408e-05,-8.36e-06,0.0,0 STARLINK-3876,1 52354U 22045Z   22347.35515508 -.00000836  00000-0 -34408-4 0  9994,2 52354  53.2168 106.8427 0003352  44.2047 315.9213 15.08837259 37291,6917.889,95.438,542.073,537.435,0.0
52354.0,STARLINK-3876,PAYLOAD,2022-12-13 14:52:57,15.08840058,0.000329,53.2169,105.6529,45.121,315.0049,-1.8745e-05,-5.87e-06,0.0,0 STARLINK-3876,1 52354U 22045Z   22347.62011257 -.00000587  00000-0 -18745-4 0  9995,2 52354  53.2169 105.6529 0003290  45.1210 315.0049 15.08840058 37339,6917.88,95.438,542.021,537.469,0.0
52354.0,STARLINK-3876,PAYLOAD,2022-12-14 00:25:16,15.08837342,0.0002476,53.2205,103.8696,46.5434,313.5764,-0.00011024,-2.042e-05,0.0,0 STARLINK-3876,1 52354U 22045Z   22348.01755676 -.00002042  00000-0 -11024-3 0  9999,2 52354  53.2205 103.8696 0002476  46.5434 313.5764 15.08837342 37398,6917.889,95.438,541.466,538.0409999999998,0.0
52354.0,STARLINK-3876,PAYLOAD,2022-12-14 11:32:59,15.08834097,0.0003089,53.2182,101.7866,40.0179,320.1040000000001,-8.3564e-05,-1.618e-05,0.0,0 STARLINK-3876,1 52354U 22045Z   22348.48124144 -.00001618  00000-0 -83564-4 0  9997,2 52354  53.2182 101.7866 0003089  40.0179 320.1040 15.08834097 37467,6917.898,95.438,541.9,537.626,0.0
52354.0,STARLINK-3876,PAYLOAD,2022-12-14 14:43:45,15.08837774,0.0003139,53.2176,101.1915,41.544,318.579,-4.6074e-05,-1.022e-05,0.0,0 STARLINK-3876,1 52354U 22045Z   22348.61371793 -.00001022  00000-0 -46074-4 0  9990,2 52354  53.2176 101.1915 0003139  41.5440 318.5790 15.08837774 37482,6917.887,95.438,541.924,537.581,0.0
52354.0,STARLINK-3876,PAYLOAD,2022-12-15 08:12:59,15.08834059,0.0003027,53.2152,97.9167,47.6381,312.4867,-7.1718e-06,-4.03e-06,0.0,0 STARLINK-3876,1 52354U 22045Z   22349.34236093 -.00000403  00000-0 -71718-5 0  9990,2 52354  53.2152  97.9167 0003027  47.6381 312.4867 15.08834059 37597,6917.899,95.438,541.8580000000002,537.67,0.0
52354.0,STARLINK-3876,PAYLOAD,2022-12-15 14:34:31,15.08845709,0.0003015,53.2154,96.7301,44.8625,315.261,8.7396e-05,1.103e-05,0.0,0 STARLINK-3876,1 52354U 22045Z   22349.60731098  .00001103  00000-0  87396-4 0  9998,2 52354  53.2154  96.7301 0003015  44.8625 315.2610 15.08845709 37639,6917.863,95.437,541.814,537.6419999999998,0.0
52354.0,STARLINK-3876,PAYLOAD,2022-12-15 17:45:18,15.08844103,0.0003087,53.217,96.1368,43.4913,316.6322,7.4402e-05,8.96e-06,0.0,0 STARLINK-3876,1 52354U 22045Z   22349.73979289  .00000896  00000-0  74402-4 0  9990,2 52354  53.2170  96.1368 0003087  43.4913 316.6322 15.08844103 37652,6917.868,95.437,541.868,537.597,0.0
52354.0,STARLINK-3876,PAYLOAD,2022-12-16 00:06:50,15.08837682,0.0003013,53.2168,94.9461,39.1378,320.9832,8.688200000000001e-05,1.094e-05,0.0,0 STARLINK-3876,1 52354U 22045Z   22350.00475617  .00001094  00000-0  86882-4 0  9994,2 52354  53.2168  94.9461 0003013  39.1378 320.9832 15.08837682 37697,6917.887,95.438,541.837,537.668,0.0
52354.0,STARLINK-3876,PAYLOAD,2022-12-16 12:49:57,15.08825646,0.0003021,53.2171,92.5675,34.6752,325.4436,-6.315800000000001e-05,-1.293e-05,0.0,0 STARLINK-3876,1 52354U 22045Z   22350.53469173 -.00001293  00000-0 -63158-4 0  9996,2 52354  53.2171  92.5675 0003021  34.6752 325.4436 15.08825646 37773,6917.924,95.438,541.879,537.6990000000002,0.0
